NORAD_CAT_ID,OBJECT_NAME,OBJECT_TYPE,EPOCH,MEAN_MOTION,ECCENTRICITY,INCLINATION,RA_OF_ASC_NODE,ARG_OF_PERICENTER,MEAN_ANOMALY,BSTAR,MEAN_MOTION_DOT,MEAN_MOTION_DDOT,TLE_LINE0,TLE_LINE1,TLE_LINE2,SEMIMAJOR_AXIS,PERIOD,APOGEE,PERIGEE,DECAYED
55406.0,STARLINK-5630,PAYLOAD,2023-04-07 13:33:42,15.69937181,0.0003285,70.0031,264.4724,259.4896,100.593,4.9717e-05,5.773e-05,0.0,0 STARLINK-5630,1 55406U 23014R   23097.56507691  .00005773  00000-0  49717-4 0  9994,2 55406  70.0031 264.4724 0003285 259.4896 100.5930 15.69937181 11485,6737.214,91.723,361.292,356.866,0.0
55406.0,STARLINK-5630,PAYLOAD,2023-04-07 21:12:29,15.69900669,0.000383,70.0011,263.575,273.599,86.4768,-4.8581e-05,-6.045e-05,0.0,0 STARLINK-5630,1 55406U 23014R   23097.88367502 -.00006045  00000-0 -48581-4 0  9997,2 55406  70.0011 263.5750 0003830 273.5990  86.4768 15.69900669 10593,6737.318,91.726,361.764,356.603,0.0
55406.0,STARLINK-5630,PAYLOAD,2023-04-08 12:30:00,15.6992927,0.0004088,70.0005,261.7802,266.0208,94.0521,3.9321e-05,4.519e-05,0.0,0 STARLINK-5630,1 55406U 23014R   23098.52083982  .00004519  00000-0  39321-4 0  9990,2 55406  70.0005 261.7802 0004088 266.0208  94.0521 15.69929270 10691,6737.236,91.724,361.856,356.347,0.0
55406.0,STARLINK-5630,PAYLOAD,2023-04-08 17:05:14,15.69961115,0.0003699,70.0014,261.2439,261.0126,99.0651,0.00011586,0.00013763,0.0,0 STARLINK-5630,1 55406U 23014R   23098.71197741  .00013763  00000-0  11586-3 0  9993,2 55406  70.0014 261.2439 0003699 261.0126  99.0651 15.69961115 10720,6737.145,91.722,361.502,356.518,0.0
55406.0,STARLINK-5630,PAYLOAD,2023-04-09 03:47:31,15.6993203,0.0002734,70.0012,259.9922,264.4235,95.6649,5.1487e-05,5.984e-05,0.0,0 STARLINK-5630,1 55406U 23014R   23099.15800479  .00005984  00000-0  51487-4 0  9992,2 55406  70.0012 259.9922 0002734 264.4235  95.6649 15.69932030 10796,6737.228,91.724,360.935,357.252,0.0
55406.0,STARLINK-5630,PAYLOAD,2023-04-09 11:26:16,15.69934133,0.0003311,70.001,259.0958,262.4815,97.6005,4.5507e-05,5.265e-05,0.0,0 STARLINK-5630,1 55406U 23014R   23099.47658425  .00005265  00000-0  45507-4 0  9997,2 55406  70.0010 259.0958 0003311 262.4815  97.6005 15.69934133 11782,6737.222,91.724,361.318,356.857,0.0
55406.0,STARLINK-5630,PAYLOAD,2023-04-09 12:58:01,15.69935245,0.0003106,70.0013,258.9169,262.6134,97.4709,3.3653e-05,3.837e-05,0.0,0 STARLINK-5630,1 55406U 23014R   23099.54030034  .00003837  00000-0  33653-4 0  9997,2 55406  70.0013 258.9169 0003106 262.6134  97.4709 15.69935245 11790,6737.219,91.724,361.177,356.992,0.0
55406.0,STARLINK-5630,PAYLOAD,2023-04-10 04:15:34,15.69912728,0.0003615,70.0006,257.1256,273.4526,86.6256,4.6739e-06,3.49e-06,0.0,0 STARLINK-5630,1 55406U 23014R   23100.17747786  .00000349  00000-0  46739-5 0  9993,2 55406  70.0006 257.1256 0003615 273.4526  86.6256 15.69912728 10955,6737.284,91.725,361.584,356.713,0.0
55406.0,STARLINK-5630,PAYLOAD,2023-04-10 10:22:33,15.69925603,0.0003889,70.0003,256.4083,267.3588,92.7163,-3.6491e-05,-4.599e-05,0.0,0 STARLINK-5630,1 55406U 23014R   23100.43233786 -.00004599  00000-0 -36491-4 0  9998,2 55406  70.0003 256.4083 0003889 267.3588  92.7163 15.69925603 10990,6737.247,91.724,361.732,356.492,0.0
55406.0,STARLINK-5630,PAYLOAD,2023-04-10 16:29:33,15.6994728,0.000456,70.0007,255.6931,270.5285,89.5388,7.847e-06,7.31e-06,0.0,0 STARLINK-5630,1 55406U 23014R   23100.68719174  .00000731  00000-0  78470-5 0  9991,2 55406  70.0007 255.6931 0004560 270.5285  89.5388 15.69947280 11971,6737.185,91.723,362.122,355.978,0.0
55406.0,STARLINK-5630,PAYLOAD,2023-04-11 03:11:49,15.69937428,0.0004242,70.0005,254.4368,269.7238,90.3472,1.0385e-05,1.036e-05,0.0,0 STARLINK-5630,1 55406U 23014R   23101.13321126  .00001036  00000-0  10385-4 0  9997,2 55406  70.0005 254.4368 0004242 269.7238  90.3472 15.69937428 11107,6737.213,91.723,361.936,356.22,0.0
55406.0,STARLINK-5630,PAYLOAD,2023-04-11 09:18:50,15.69920925,0.0003153,69.9991,253.7204,272.1946,87.8888,-4.9156e-06,-8.04e-06,0.0,0 STARLINK-5630,1 55406U 23014R   23101.38808829 -.00000804  00000-0 -49156-5 0  9997,2 55406  69.9991 253.7204 0003153 272.1946  87.8888 15.69920925 11143,6737.26,91.724,361.249,357.001,0.0
55406.0,STARLINK-5630,PAYLOAD,2023-04-11 12:22:21,15.69917019,0.0003375,70.0006,253.3621,270.5043,89.5766,-1.6029e-06,-4.05e-06,0.0,0 STARLINK-5630,1 55406U 23014R   23101.51552384 -.00000405  00000-0 -16029-5 0  9994,2 55406  70.0006 253.3621 0003375 270.5043  89.5766 15.69917019 12109,6737.271,91.725,361.41,356.863,0.0
55406.0,STARLINK-5630,PAYLOAD,2023-04-11 16:57:36,15.6992571,0.0003621,69.9987,252.8251,268.6128,91.4653,8.2037e-06,7.74e-06,0.0,0 STARLINK-5630,1 55406U 23014R   23101.70666906  .00000774  00000-0  82037-5 0  9990,2 55406  69.9987 252.8251 0003621 268.6128  91.4653 15.69925710 12130,6737.247,91.724,361.551,356.672,0.0
55406.0,STARLINK-5630,PAYLOAD,2023-04-12 09:46:52,15.6992222,0.0003732,69.9985,250.8537,268.3311,91.7457,1.7659e-05,1.911e-05,0.0,0 STARLINK-5630,1 55406U 23014R   23102.40755481  .00001911  00000-0  17659-4 0  9996,2 55406  69.9985 250.8537 0003732 268.3311  91.7457 15.69922220 11303,6737.257,91.724,361.636,356.607,0.0
55406.0,STARLINK-5630,PAYLOAD,2023-04-12 11:18:37,15.69924088,0.0003667,69.9987,250.6746,268.8426,91.2349,1.3911e-05,1.46e-05,0.0,0 STARLINK-5630,1 55406U 23014R   23102.47127087  .00001460  00000-0  13911-4 0  9994,2 55406  69.9987 250.6746 0003667 268.8426  91.2349 15.69924088 12258,6737.251,91.724,361.587,356.646,0.0
55406.0,STARLINK-5630,PAYLOAD,2023-04-13 08:43:10,15.69914169,0.0003741,69.9985,248.1678,271.654,88.4227,1.86e-05,2.023e-05,0.0,0 STARLINK-5630,1 55406U 23014R   23103.36331062  .00002023  00000-0  18600-4 0  9999,2 55406  69.9985 248.1678 0003741 271.6540  88.4227 15.69914169 12391,6737.28,91.725,361.665,356.624,0.0
55406.0,STARLINK-5630,PAYLOAD,2023-04-13 16:21:55,15.69922765,0.0003822,69.9975,247.2708,266.9969,93.0789,3.077e-05,3.488e-05,0.0,0 STARLINK-5630,1 55406U 23014R   23103.68188775  .00003488  00000-0  30770-4 0  9993,2 55406  69.9975 247.2708 0003822 266.9969  93.0789 15.69922765 11504,6737.255,91.724,361.695,356.545,0.0
55406.0,STARLINK-5630,PAYLOAD,2023-04-14 12:14:41,15.69924435,0.0003515,69.9979,244.9433,267.3149,92.7644,9.4819e-06,9.27e-06,0.0,0 STARLINK-5630,1 55406U 23014R   23104.51020660  .00000927  00000-0  94819-5 0  9994,2 55406  69.9979 244.9433 0003515 267.3149  92.7644 15.69924435 12571,6737.25,91.724,361.483,356.747,0.0
55406.0,STARLINK-5630,PAYLOAD,2023-04-15 12:42:45,15.69901512,0.0002867,69.9991,242.0759,252.3683,107.72,-1.192e-05,-1.644e-05,0.0,0 STARLINK-5630,1 55406U 23014R   23105.52969225 -.00001644  00000-0 -11920-4 0  9995,2 55406  69.9991 242.0759 0002867 252.3683 107.7200 15.69901512 11790,6737.316,91.725,361.112,357.249,0.0
55406.0,STARLINK-5630,PAYLOAD,2023-04-15 18:49:44,15.69925828,0.0003132,70.0,241.361,256.4756,103.6091,1.7957e-05,1.947e-05,0.0,0 STARLINK-5630,1 55406U 23014R   23105.78454059  .00001947  00000-0  17957-4 0  9997,2 55406  70.0000 241.3610 0003132 256.4756 103.6091 15.69925828 11838,6737.246,91.724,361.221,357.001,0.0
55406.0,STARLINK-5630,PAYLOAD,2023-04-16 11:39:00,15.69924583,0.0002913,70.0002,239.3917,251.1025,108.9855,1.1455e-05,1.165e-05,0.0,0 STARLINK-5630,1 55406U 23014R   23106.48542626  .00001165  00000-0  11455-4 0  9992,2 55406  70.0002 239.3917 0002913 251.1025 108.9855 15.69924583 12883,6737.25,91.724,361.077,357.152,0.0
55406.0,STARLINK-5630,PAYLOAD,2023-04-16 17:46:00,15.69929974,0.0002889,70.0007,238.6755,249.6998,110.3888,1.2486e-05,1.289e-05,0.0,0 STARLINK-5630,1 55406U 23014R   23106.74028819  .00001289  00000-0  12486-4 0  9996,2 55406  70.0007 238.6755 0002889 249.6998 110.3888 15.69929974 12920,6737.234,91.724,361.046,357.153,0.0
55406.0,STARLINK-5630,PAYLOAD,2023-04-17 12:07:03,15.69919082,0.0002333,70.0007,236.5247,240.8418,119.2544,4.8783e-06,3.74e-06,0.0,0 STARLINK-5630,1 55406U 23014R   23107.50489903  .00000374  00000-0  48783-5 0  9990,2 55406  70.0007 236.5247 0002333 240.8418 119.2544 15.69919082 12103,6737.266,91.724,360.702,357.559,0.0
55406.0,STARLINK-5630,PAYLOAD,2023-04-17 18:14:04,15.69905124,0.0002349,69.9995,235.8066,301.3321,58.7645,1.8622e-05,2.025e-05,0.0,0 STARLINK-5630,1 55406U 23014R   23107.75977696  .00002025  00000-0  18622-4 0  9991,2 55406  69.9995 235.8066 0002349 301.3321  58.7645 15.69905124 12145,6737.305,91.725,360.753,357.588,0.0
55406.0,STARLINK-5630,PAYLOAD,2023-04-18 09:31:34,15.69919541,0.0003437,69.9985,234.0153,259.5051,100.5757,7.6705e-06,7.09e-06,0.0,0 STARLINK-5630,1 55406U 23014R   23108.39693115  .00000709  00000-0  76705-5 0  9997,2 55406  69.9985 234.0153 0003437 259.5051 100.5757 15.69919541 12244,6737.264,91.724,361.445,356.814,0.0
55406.0,STARLINK-5630,PAYLOAD,2023-04-18 17:10:20,15.69922645,0.0003334,69.9987,233.1202,259.8285,100.2535,1.0559e-05,1.057e-05,0.0,0 STARLINK-5630,1 55406U 23014R   23108.71551313  .00001057  00000-0  10559-4 0  9997,2 55406  69.9987 233.1202 0003334 259.8285 100.2535 15.69922645 13239,6737.255,91.724,361.367,356.874,0.0
55406.0,STARLINK-5630,PAYLOAD,2023-04-19 08:27:51,15.69922702,0.0003114,69.9995,231.328,255.3741,104.711,2.0842e-05,2.294e-05,0.0,0 STARLINK-5630,1 55406U 23014R   23109.35267718  .00002294  00000-0  20842-4 0  9991,2 55406  69.9995 231.3280 0003114 255.3741 104.7110 15.69922702 13331,6737.255,91.724,361.218,357.022,0.0
55406.0,STARLINK-5630,PAYLOAD,2023-04-19 16:06:36,15.69923809,0.0003239,69.9987,230.432,259.3417,100.7414,2.0098e-05,2.204e-05,0.0,0 STARLINK-5630,1 55406U 23014R   23109.67126092  .00002204  00000-0  20098-4 0  9999,2 55406  69.9987 230.4320 0003239 259.3417 100.7414 15.69923809 13386,6737.252,91.724,361.299,356.935,0.0
55406.0,STARLINK-5630,PAYLOAD,2023-04-20 08:55:53,15.69919898,0.0003493,69.9987,228.4618,262.3651,97.7148,2.6889e-06,1.1e-06,0.0,0 STARLINK-5630,1 55406U 23014R   23110.37215126  .00000110  00000-0  26889-5 0  9994,2 55406  69.9987 228.4618 0003493 262.3651  97.7148 15.69919898 13493,6737.263,91.724,361.481,356.775,0.0
